AKEBONO (EXOS-D)        
1 19822U 89016A   20221.46723181  .00016017  76682-6  28251-3 0  9996
2 19822  75.0128   4.1788 1722119 218.8298 127.5839 12.10270655 45896
HST                     
1 20580U 90037B   20221.59917184  .00000410  00000-0  13958-4 0  9990
2 20580  28.4705 334.7641 0002520 295.7270 175.2353 15.09415024463855
POLAR                   
1 23802U 96013A   20221.29547525  .00000230  00000-0  00000+0 0  9994
2 23802  78.7063 249.1736 6275321 281.5720  18.4219  1.29846543117063
SWAS                    
1 25560U 98071A   20221.54907481  .00000044  00000-0  12688-4 0  9995
2 25560  69.8973 252.5722 0011093 264.8817  95.1073 14.93894159176807
ORSTED                  
1 25635U 99008B   20221.59568510  .00000005  00000-0  86621-5 0  9996
2 25635  96.4449 233.6028 0138572 183.4691 176.5560 14.48216465132165
CXO                     
1 25867U 99040B   20222.05485356  .00000417  00000-0  00000+0 0  9995
2 25867  61.5653 265.6427 7819057 227.5195   0.3082  0.37802881 20390
XMM-NEWTON              
1 25989U 99066A   20223.39949030  .00000042  00000-0  00000+0 0  9994
2 25989  71.1081 319.6111 7046429  92.7621   0.4451  0.50134004 26654
TERRA                   
1 25994U 99068A   20221.49662507  .00000062  00000-0  23841-4 0  9997
2 25994  98.2105 295.0530 0001279 105.3591 254.7749 14.57113113 97891
CLUSTER II-FM7 (SAMBA)  
1 26410U 00041A   20223.63063362  .00000007  00000-0  00000+0 0  9992
2 26410 132.0059 342.0533 4459440 184.6618 359.3479  0.44210262 22587
CLUSTER II-FM6 (SALSA)  
1 26411U 00041B   20223.72976033 -.00000047  00000-0  00000+0 0  9996
2 26411 132.0619 343.3938 5776125 190.4324 359.2889  0.44214292 21899
CLUSTER II-FM5 (RUMBA)  
1 26463U 00045A   20223.68807327  .00000012  00000-0  00000+0 0  9992
2 26463 135.6976 343.0675 5377268 190.1931 359.3368  0.44219867 23160
CLUSTER II-FM8 (TANGO)  
1 26464U 00045B   20223.61965734  .00000007  00000-0  00000+0 0  9997
2 26464 132.0107 342.0472 4457525 184.6512 359.3593  0.44220276 58501
ODIN                    
1 26702U 01007A   20221.53997634  .00000461  00000-0  33890-4 0  9996
2 26702  97.5532 237.6361 0012733  89.7295 270.5392 15.08131438 64062
TIMED                   
1 26998U 01055B   20221.49592557  .00000056  00000-0  10106-4 0  9991
2 26998  74.0718 189.5932 0002597 262.7140  97.3746 14.88205426 12206
RHESSI                  
1 27370U 02004A   20221.45673952  .00001727  00000-0  57405-4 0  9995
2 27370  38.0316 223.3864 0010949  36.4964 323.6551 15.32958501 22317
INTEGRAL                
1 27540U 02048A   20220.02114903  .00000534  00000-0  00000+0 0  9999
2 27540  55.7849 109.8829 8975812 292.9202   1.9990  0.37581836 18582
CORIOLIS                
1 27640U 03001A   20221.60128543 -.00000016  00000-0  13499-4 0  9997
2 27640  98.7260 230.2447 0013090 245.1203 222.3558 14.19043715910838
SORCE                   
1 27651U 03004A   20221.55056669  .00000026  00000-0  16889-4 0  9991
2 27651  39.9964  39.4962 0022185  21.6086 338.5635 14.89133770951963
MOST                    
1 27843U 03031D   20221.53198411 -.00000025  00000-0  86664-5 0  9993
2 27843  98.7095 228.0745 0009132 307.8442  52.1908 14.20615090886998
SCISAT 1                
1 27858U 03036A   20221.13582817 -.00000002  00000-0  47481-5 0  9996
2 27858  73.9325  82.9690 0009135 276.9266  83.0869 14.77296410915281
SWIFT                   
1 28485U 04047A   20221.55897979  .00000787  00000-0  23204-4 0  9995
2 28485  20.5579  20.1072 0011178 356.6593   3.3766 15.04649606861331
FORMOSAT-3 FM6          
1 29047U 06011A   20221.56776479  .00000055  00000-0  37715-4 0  9995
2 29047  71.9797   3.6220 0051271 330.5428  29.2821 14.28746019748766
FORMOSAT-3 FM1          
1 29048U 06011B   20221.58771609  .00000085  00000-0  49714-4 0  9993
2 29048  71.9657 274.4325 0045687 289.4090  70.2112 14.28709903751255
FORMOSAT-3 FM5          
1 29049U 06011C   20221.16574324  .00000013  00000-0  21616-4 0  9995
2 29049  72.0204  87.2365 0036192 315.3606  44.4618 14.28791741746982
FORMOSAT-3 FM3          
1 29050U 06011D   20221.45846658  .00000098  00000-0  31101-4 0  9994
2 29050  72.0139 227.4169 0051463 231.8978 127.7529 14.58935635763916
FORMOSAT-3 FM4          
1 29051U 06011E   20221.58474687  .00000043  00000-0  32645-4 0  9992
2 29051  72.0070 348.3345 0068599 196.0917 163.8043 14.28822555749631
FORMOSAT-3 FM2          
1 29052U 06011F   20221.58056661  .00000052  00000-0  36616-4 0  9993
2 29052  72.0341  62.7062 0041680 275.5504  84.0879 14.28928879747144
CLOUDSAT                
1 29107U 06016A   20221.50602496  .00000077  00000-0  24577-4 0  9994
2 29107  98.2339 168.6004 0001053 160.5219 199.6023 14.62431703759937
CALIPSO                 
1 29108U 06016B   20221.50545350  .00000080  00000-0  25246-4 0  9998
2 29108  98.2323 168.3728 0001489  75.8546 284.2821 14.62429277759924
HINODE (SOLAR-B)        
1 29479U 06041A   20221.53379843  .00000038  00000-0  16099-4 0  9991
2 29479  98.1590 232.9092 0016524 200.4400 159.6143 14.65077931741510
SJ-6C                   
1 29505U 06046A   20221.60153997  .00000690  00000-0  68588-4 0  9998
2 29505  97.8151 235.1430 0003883 200.5085 159.5992 14.94896351751401
SJ-6D                   
1 29506U 06046B   20221.52844486  .00000471  00000-0  50163-4 0  9997
2 29506  97.8347 235.2027 0001069   0.6497 359.4739 14.93524997750943
AGILE                   
1 31135U 07013A   20221.57225724  .00002197  00000-0  32397-4 0  9992
2 31135   2.4669 146.2704 0012172 271.6029  88.2631 15.32431716372661
AIM                     
1 31304U 07015A   20221.59714258  .00000619  00000-0  38389-4 0  9993
2 31304  97.8998 106.3137 0005237 163.7929 196.3470 15.13664446728577
FGRST (GLAST)           
1 33053U 08029A   20221.07375425  .00000467  00000-0  98890-5 0  9999
2 33053  25.5829 108.8369 0012078 244.1138 115.8152 15.11356599671151
WISE                    
1 36119U 09071A   20221.59165529  .00000667  00000-0  25384-4 0  9991
2 36119  97.3246 257.1524 0002579 159.8209 200.3134 15.30179294591779
SDO                     
1 36395U 10005A   20220.22063354 -.00000084  00000-0  00000-0 0  9996
2 36395  30.4055 120.4566 0001425   9.4595 163.5151  1.00269516 38602
CRYOSAT 2               
1 36508U 10013A   20221.56516656  .00000071  00000-0  16785-4 0  9993
2 36508  92.0309 120.3798 0007726  49.4298 310.7581 14.51902012547832
X-SAT                   
1 37389U 11015C   20221.42907586 -.00000013  00000-0  12251-4 0  9996
2 37389  98.4313 274.6829 0015010 134.8255 225.4153 14.24379898483689
GCOM-W1 (SHIZUKU)       
1 38337U 12025A   20221.52554396  .00000018  00000-0  13963-4 0  9995
2 38337  98.2107 160.7832 0001888 119.0256 300.8887 14.57113138437595
NUSTAR                  
1 38358U 12031A   20221.58943543  .00001318  00000-0  64127-4 0  9999
2 38358   6.0239 250.3340 0012555 281.2033  78.6586 14.88325065443792
NEOSSAT                 
1 39089U 13009D   20221.58642091 -.00000005  00000-0  13293-4 0  9992
2 39089  98.4646  62.3886 0012235 128.7413 231.4867 14.34516964390028
IRIS                    
1 39197U 13033A   20221.50831679  .00000057  00000-0  14879-4 0  9990
2 39197  97.9603  43.0307 0028970  63.0076 297.4088 14.78743200383772
HISAKI (SPRINT-A)       
1 39253U 13049A   20221.51604570  .00000106  00000-0  56202-4 0  9990
2 39253  29.7204 289.7070 0137349 323.7446  35.3884 13.55225670341079
CASSIOPE                
1 39265U 13055A   20221.53157903  .00003207  00000-0  88914-4 0  9995
2 39265  80.9649 259.9620 0660586 150.5604 213.4559 14.29615064355244
STSAT-3                 
1 39422U 13066G   20221.56151212  .00000154  00000-0  21462-4 0  9995
2 39422  97.5085 251.6804 0023618  23.9972 336.2341 14.89847498364898
SWARM B                 
1 39451U 13067A   20221.54546461  .00000262  00000-0  99644-5 0  9998
2 39451  87.7490 264.2163 0003425  69.3542 290.8071 15.21765282357883
SWARM A                 
1 39452U 13067B   20221.54336756  .00000988  00000-0  20213-4 0  9993
2 39452  87.3609 111.7751 0002902 102.5155 257.6428 15.44641436377226
SWARM C                 
1 39453U 13067C   20221.54331042  .00000984  00000-0  20123-4 0  9993
2 39453  87.3463 112.6267 0002900 102.4787 257.6795 15.44642180377184
BRITE-CA1 (TORONTO)     
1 40020U 14033L   20221.46697268  .00000029  00000-0  13472-4 0  9994
2 40020  97.7316  46.6989 0085883 266.6918  92.4459 14.66654142328389
OCO 2                   
1 40059U 14035A   20221.51116135  .00000017  00000-0  13830-4 0  9998
2 40059  98.2109 161.5052 0001535  86.0040 274.1333 14.57109448324602
BRITE-PL2 (HEWELIUSZ)   
1 40119U 14049B   20221.22033172  .00000093  00000-0  17430-4 0  9991
2 40119  97.8957 312.9324 0016132 302.4560  57.5094 14.84521757323461
RESURS P2               
1 40360U 14087A   20221.45715809  .00000628  00000-0  21653-4 0  9996
2 40360  97.2458 309.2486 0009307  10.2666 118.4957 15.33606438314284
MMS 1                   
1 40482U 15011A   20207.04166667 -.00001588  00000-0  00000+0 0  9995
2 40482  29.1471 120.0719 8597238  22.2843 359.9824  0.28640990 11322
MMS 2                   
1 40483U 15011B   20207.04166667 -.00001587  00000-0  00000+0 0  9995
2 40483  29.1466 120.0725 8594747  22.2869 359.9769  0.28640997 11307
MMS 3                   
1 40484U 15011C   20212.35416667 -.00002347  00000-0  00000+0 0  9999
2 40484  29.1889 119.9635 8587776  22.5013 187.4711  0.28667768 11319
MMS 4                   
1 40485U 15011D   20212.35416667 -.00002346  00000-0  00000+0 0  9999
2 40485  29.1927 119.9904 8587301  22.4775 187.4639  0.28667378 11316
ASTROSAT                
1 40930U 15052A   20220.98010216  .00000710  00000-0  10607-4 0  9998
2 40930   5.9979 335.0499 0009106 277.1702  82.7391 14.76323731262841
DAMPE                   
1 41173U 15078A   20221.57646708  .00000070  00000-0  57615-5 0  9993
2 41173  97.3261 214.3804 0015494  70.6642  44.8767 15.23888461258339
PISAT                   
1 41784U 16059B   20221.39050351  .00000066  00000-0  21589-4 0  9999
2 41784  98.0147 276.4639 0032753 147.8054 212.5157 14.63529956206507
HXMT (HUIYAN)           
1 42758U 17034A   20221.55610966  .00000204  00000-0  26418-4 0  9997
2 42758  43.0180 110.1588 0011436 349.5603  78.3057 15.08863000173746
FLYING LAPTOP           
1 42831U 17042G   20221.53617571  .00000148  00000-0  20239-4 0  9997
2 42831  97.5143 100.9972 0015579 109.1704 251.1203 14.91144128167054
PICSAT                  
1 43132U 18004X   20221.43155253  .00001222  00000-0  52600-4 0  9995
2 43132  97.4446 292.4502 0008317 223.3540 136.7044 15.24523889142976
ZHANGZHENG-1 (CSES)     
1 43194U 18015C   20221.48720875  .00000815  00000-0  39840-4 0  9996
2 43194  97.4427 345.8902 0013858 292.1788 132.1286 15.21009519139570
ICON                    
1 44628U 19068A   20220.87246571  .00000435  00000-0  22410-4 0  9999
2 44628  26.9908  58.0401 0019004 168.1624 191.9383 14.91714678 45113
